KINEIS-1B               
1 60079U 24114A   26188.86645039  .00000666  00000+0  93495-4 0  9991
2 60079  97.9826 212.9532 0003433  54.2469 305.9062 14.80659427110465
KINEIS-1C               
1 60081U 24114C   26188.90009144  .00000635  00000+0  89466-4 0  9999
2 60081  97.9841 212.8403 0002504 103.8496 256.2995 14.80661573110446
KINEIS-1D               
1 60082U 24114D   26188.85127912  .00000521  00000+0  82319-4 0  9992
2 60082  97.9882 208.7608 0002833 109.3796 250.7720 14.76356314110176
KINEIS-1E               
1 60083U 24114E   26188.85044713  .00000870  00000+0  11995-3 0  9998
2 60083  97.8943 211.9416 0003848 124.7042 235.4534 14.80685292110447
KINEIS-1A               
1 60084U 24114F   26188.88383387  .00000683  00000+0  95611-4 0  9995
2 60084  97.8916 212.0707 0005644  79.8162 280.3687 14.80674542110457
KINEIS-3C               
1 61220U 24172A   26188.18915973  .00001535  00000+0  25036-3 0  9997
2 61220  98.0430 277.8766 0002812  94.8849 265.2679 14.72354107 96012
KINEIS-3D               
1 61221U 24172B   26188.72609606  .00001324  00000+0  21706-3 0  9997
2 61221  98.0426 278.4180 0002628  93.5518 266.5990 14.72357604 96373
KINEIS-3E               
1 61222U 24172C   26188.77705083  .00001298  00000+0  21307-3 0  9996
2 61222  98.0423 278.4501 0001883  94.5461 265.5962 14.72324551 96382
KINEIS-3A               
1 61223U 24172D   26188.76047735  .00001342  00000+0  22027-3 0  9999
2 61223  98.0419 278.5321 0002656  57.4903 302.6561 14.72294370 95806
KINEIS-3B               
1 61224U 24172E   26188.74303389  .00001282  00000+0  21086-3 0  9995
2 61224  98.0413 278.5380 0002176  45.6732 314.4654 14.72280483 96379
KINEIS-5C               
1 62081U 24219A   26188.85625895  .00000540  00000+0  93001-4 0  9993
2 62081  97.9060 347.1364 0003543 196.4837 163.6256 14.72308353 86796
KINEIS-5D               
1 62082U 24219B   26188.88365818  .00000771  00000+0  12908-3 0  9995
2 62082  97.9172 347.2188 0004674 190.0258 170.0857 14.72484658 86803
KINEIS-5E               
1 62083U 24219C   26188.83256113  .00000497  00000+0  86247-4 0  9991
2 62083  97.9016 347.2117 0006162 187.2576 172.8543 14.72293199 86808
KINEIS-5A               
1 62084U 24219D   26188.74253865  .00001041  00000+0  17251-3 0  9997
2 62084  97.8956 347.4103 0003278 229.5512 130.5411 14.72259060 86795
KINEIS-5B               
1 62085U 24219E   26188.82657260  .00000894  00000+0  12992-3 0  9996
2 62085  98.0082 352.5431 0001965 160.4899 199.6388 14.78375070 87057
KINEIS-2C               
1 62929U 25028B   26188.69429850  .00001321  00000+0  21159-3 0  9990
2 62929  98.1233 243.1099 0003625 180.1443 179.9765 14.73414440 75638
