{"fetched_at":"2026-07-08T07:04:02.728Z","source":"https://celestrak.org/NORAD/elements/gp.php?NAME=KINEIS&FORMAT=JSON","constellation":"kineis","records":[{"OBJECT_NAME":"KINEIS-1B","OBJECT_ID":"2024-114A","EPOCH":"2026-07-07T20:47:41.313696","CLASSIFICATION_TYPE":"U","MEAN_MOTION":14.80659427,"ECCENTRICITY":0.0003433,"INCLINATION":97.9826,"RA_OF_ASC_NODE":212.9532,"ARG_OF_PERICENTER":54.2469,"MEAN_ANOMALY":305.9062,"EPHEMERIS_TYPE":0,"NORAD_CAT_ID":60079,"ELEMENT_SET_NO":999,"REV_AT_EPOCH":11046,"BSTAR":0.000093495,"MEAN_MOTION_DOT":0.00000666,"MEAN_MOTION_DDOT":0},{"OBJECT_NAME":"KINEIS-1C","OBJECT_ID":"2024-114C","EPOCH":"2026-07-07T21:36:07.900416","CLASSIFICATION_TYPE":"U","MEAN_MOTION":14.80661573,"ECCENTRICITY":0.0002504,"INCLINATION":97.9841,"RA_OF_ASC_NODE":212.8403,"ARG_OF_PERICENTER":103.8496,"MEAN_ANOMALY":256.2995,"EPHEMERIS_TYPE":0,"NORAD_CAT_ID":60081,"ELEMENT_SET_NO":999,"REV_AT_EPOCH":11044,"BSTAR":0.000089466,"MEAN_MOTION_DOT":0.00000635,"MEAN_MOTION_DDOT":0},{"OBJECT_NAME":"KINEIS-1D","OBJECT_ID":"2024-114D","EPOCH":"2026-07-07T20:25:50.515968","CLASSIFICATION_TYPE":"U","MEAN_MOTION":14.76356314,"ECCENTRICITY":0.0002833,"INCLINATION":97.9882,"RA_OF_ASC_NODE":208.7608,"ARG_OF_PERICENTER":109.3796,"MEAN_ANOMALY":250.772,"EPHEMERIS_TYPE":0,"NORAD_CAT_ID":60082,"ELEMENT_SET_NO":999,"REV_AT_EPOCH":11017,"BSTAR":0.000082319,"MEAN_MOTION_DOT":0.00000521,"MEAN_MOTION_DDOT":0},{"OBJECT_NAME":"KINEIS-1E","OBJECT_ID":"2024-114E","EPOCH":"2026-07-07T20:24:38.632032","CLASSIFICATION_TYPE":"U","MEAN_MOTION":14.80685292,"ECCENTRICITY":0.0003848,"INCLINATION":97.8943,"RA_OF_ASC_NODE":211.9416,"ARG_OF_PERICENTER":124.7042,"MEAN_ANOMALY":235.4534,"EPHEMERIS_TYPE":0,"NORAD_CAT_ID":60083,"ELEMENT_SET_NO":999,"REV_AT_EPOCH":11044,"BSTAR":0.00011995,"MEAN_MOTION_DOT":0.0000087,"MEAN_MOTION_DDOT":0},{"OBJECT_NAME":"KINEIS-1A","OBJECT_ID":"2024-114F","EPOCH":"2026-07-07T21:12:43.246368","CLASSIFICATION_TYPE":"U","MEAN_MOTION":14.80674542,"ECCENTRICITY":0.0005644,"INCLINATION":97.8916,"RA_OF_ASC_NODE":212.0707,"ARG_OF_PERICENTER":79.8162,"MEAN_ANOMALY":280.3687,"EPHEMERIS_TYPE":0,"NORAD_CAT_ID":60084,"ELEMENT_SET_NO":999,"REV_AT_EPOCH":11045,"BSTAR":0.000095611,"MEAN_MOTION_DOT":0.00000683,"MEAN_MOTION_DDOT":0},{"OBJECT_NAME":"KINEIS-3C","OBJECT_ID":"2024-172A","EPOCH":"2026-07-07T04:32:23.400672","CLASSIFICATION_TYPE":"U","MEAN_MOTION":14.72354107,"ECCENTRICITY":0.00028125,"INCLINATION":98.043,"RA_OF_ASC_NODE":277.8766,"ARG_OF_PERICENTER":94.8849,"MEAN_ANOMALY":265.2679,"EPHEMERIS_TYPE":0,"NORAD_CAT_ID":61220,"ELEMENT_SET_NO":999,"REV_AT_EPOCH":9601,"BSTAR":0.00025035796,"MEAN_MOTION_DOT":0.00001535,"MEAN_MOTION_DDOT":0},{"OBJECT_NAME":"KINEIS-3D","OBJECT_ID":"2024-172B","EPOCH":"2026-07-07T17:25:34.699584","CLASSIFICATION_TYPE":"U","MEAN_MOTION":14.72357604,"ECCENTRICITY":0.0002628,"INCLINATION":98.0426,"RA_OF_ASC_NODE":278.418,"ARG_OF_PERICENTER":93.5518,"MEAN_ANOMALY":266.599,"EPHEMERIS_TYPE":0,"NORAD_CAT_ID":61221,"ELEMENT_SET_NO":999,"REV_AT_EPOCH":9637,"BSTAR":0.00021706,"MEAN_MOTION_DOT":0.00001324,"MEAN_MOTION_DDOT":0},{"OBJECT_NAME":"KINEIS-3E","OBJECT_ID":"2024-172C","EPOCH":"2026-07-07T18:38:57.191712","CLASSIFICATION_TYPE":"U","MEAN_MOTION":14.72324551,"ECCENTRICITY":0.0001883,"INCLINATION":98.0423,"RA_OF_ASC_NODE":278.4501,"ARG_OF_PERICENTER":94.5461,"MEAN_ANOMALY":265.5962,"EPHEMERIS_TYPE":0,"NORAD_CAT_ID":61222,"ELEMENT_SET_NO":999,"REV_AT_EPOCH":9638,"BSTAR":0.00021307,"MEAN_MOTION_DOT":0.00001298,"MEAN_MOTION_DDOT":0},{"OBJECT_NAME":"KINEIS-3A","OBJECT_ID":"2024-172D","EPOCH":"2026-07-07T18:15:05.243040","CLASSIFICATION_TYPE":"U","MEAN_MOTION":14.7229437,"ECCENTRICITY":0.0002656,"INCLINATION":98.0419,"RA_OF_ASC_NODE":278.5321,"ARG_OF_PERICENTER":57.4903,"MEAN_ANOMALY":302.6561,"EPHEMERIS_TYPE":0,"NORAD_CAT_ID":61223,"ELEMENT_SET_NO":999,"REV_AT_EPOCH":9580,"BSTAR":0.00022027,"MEAN_MOTION_DOT":0.00001342,"MEAN_MOTION_DDOT":0},{"OBJECT_NAME":"KINEIS-3B","OBJECT_ID":"2024-172E","EPOCH":"2026-07-07T17:49:58.128096","CLASSIFICATION_TYPE":"U","MEAN_MOTION":14.72280483,"ECCENTRICITY":0.0002176,"INCLINATION":98.0413,"RA_OF_ASC_NODE":278.538,"ARG_OF_PERICENTER":45.6732,"MEAN_ANOMALY":314.4654,"EPHEMERIS_TYPE":0,"NORAD_CAT_ID":61224,"ELEMENT_SET_NO":999,"REV_AT_EPOCH":9637,"BSTAR":0.00021086,"MEAN_MOTION_DOT":0.00001282,"MEAN_MOTION_DDOT":0},{"OBJECT_NAME":"KINEIS-5C","OBJECT_ID":"2024-219A","EPOCH":"2026-07-07T20:33:00.773280","CLASSIFICATION_TYPE":"U","MEAN_MOTION":14.72308353,"ECCENTRICITY":0.0003543,"INCLINATION":97.906,"RA_OF_ASC_NODE":347.1364,"ARG_OF_PERICENTER":196.4837,"MEAN_ANOMALY":163.6256,"EPHEMERIS_TYPE":0,"NORAD_CAT_ID":62081,"ELEMENT_SET_NO":999,"REV_AT_EPOCH":8679,"BSTAR":0.000093001,"MEAN_MOTION_DOT":0.0000054,"MEAN_MOTION_DDOT":0},{"OBJECT_NAME":"KINEIS-5D","OBJECT_ID":"2024-219B","EPOCH":"2026-07-07T21:12:28.066752","CLASSIFICATION_TYPE":"U","MEAN_MOTION":14.72484658,"ECCENTRICITY":0.0004674,"INCLINATION":97.9172,"RA_OF_ASC_NODE":347.2188,"ARG_OF_PERICENTER":190.0258,"MEAN_ANOMALY":170.0857,"EPHEMERIS_TYPE":0,"NORAD_CAT_ID":62082,"ELEMENT_SET_NO":999,"REV_AT_EPOCH":8680,"BSTAR":0.00012908,"MEAN_MOTION_DOT":0.00000771,"MEAN_MOTION_DDOT":0},{"OBJECT_NAME":"KINEIS-5E","OBJECT_ID":"2024-219C","EPOCH":"2026-07-07T19:58:53.281632","CLASSIFICATION_TYPE":"U","MEAN_MOTION":14.72293199,"ECCENTRICITY":0.0006162,"INCLINATION":97.9016,"RA_OF_ASC_NODE":347.2117,"ARG_OF_PERICENTER":187.2576,"MEAN_ANOMALY":172.8543,"EPHEMERIS_TYPE":0,"NORAD_CAT_ID":62083,"ELEMENT_SET_NO":999,"REV_AT_EPOCH":8680,"BSTAR":0.000086247,"MEAN_MOTION_DOT":0.00000497,"MEAN_MOTION_DDOT":0},{"OBJECT_NAME":"KINEIS-5A","OBJECT_ID":"2024-219D","EPOCH":"2026-07-07T17:49:15.339360","CLASSIFICATION_TYPE":"U","MEAN_MOTION":14.7225906,"ECCENTRICITY":0.0003278,"INCLINATION":97.8956,"RA_OF_ASC_NODE":347.4103,"ARG_OF_PERICENTER":229.5512,"MEAN_ANOMALY":130.5411,"EPHEMERIS_TYPE":0,"NORAD_CAT_ID":62084,"ELEMENT_SET_NO":999,"REV_AT_EPOCH":8679,"BSTAR":0.00017251,"MEAN_MOTION_DOT":0.00001041,"MEAN_MOTION_DDOT":0},{"OBJECT_NAME":"KINEIS-5B","OBJECT_ID":"2024-219E","EPOCH":"2026-07-07T19:50:15.872640","CLASSIFICATION_TYPE":"U","MEAN_MOTION":14.7837507,"ECCENTRICITY":0.0001965,"INCLINATION":98.0082,"RA_OF_ASC_NODE":352.5431,"ARG_OF_PERICENTER":160.4899,"MEAN_ANOMALY":199.6388,"EPHEMERIS_TYPE":0,"NORAD_CAT_ID":62085,"ELEMENT_SET_NO":999,"REV_AT_EPOCH":8705,"BSTAR":0.00012992,"MEAN_MOTION_DOT":0.00000894,"MEAN_MOTION_DDOT":0},{"OBJECT_NAME":"KINEIS-2C","OBJECT_ID":"2025-028B","EPOCH":"2026-07-07T16:39:47.390400","CLASSIFICATION_TYPE":"U","MEAN_MOTION":14.7341444,"ECCENTRICITY":0.0003625,"INCLINATION":98.1233,"RA_OF_ASC_NODE":243.1099,"ARG_OF_PERICENTER":180.1443,"MEAN_ANOMALY":179.9765,"EPHEMERIS_TYPE":0,"NORAD_CAT_ID":62929,"ELEMENT_SET_NO":999,"REV_AT_EPOCH":7563,"BSTAR":0.00021159,"MEAN_MOTION_DOT":0.00001321,"MEAN_MOTION_DDOT":0}]}
